{
  "type": "FeatureCollection",
  "features": [
    {
      "type": "Feature",
      "properties": {
        "norad_id": 43783,
        "name": "KAZSTSAT",
        "group": "resource",
        "lat": -55.164747451902045,
        "lon": 47.179799307226865,
        "alt_km": 572.4663795153783,
        "timestamp": "2025-12-27T19:21:58.432303+00:00",
        "meta_object_name": "KAZSTSAT",
        "meta_object_id": "2018-099AB",
        "meta_epoch": "2025-12-27T08:24:11.645856",
        "meta_mean_motion": 14.99376905,
        "meta_eccentricity": 0.0006477,
        "meta_inclination": 97.4507,
        "meta_ra_of_asc_node": 35.9041,
        "meta_arg_of_pericenter": 265.2413,
        "meta_mean_anomaly": 94.8071,
        "meta_ephemeris_type": 0,
        "meta_classification_type": "U",
        "meta_norad_cat_id": 43783,
        "meta_element_set_no": 999,
        "meta_rev_at_epoch": 38555,
        "meta_bstar": 8.2885e-05,
        "meta_mean_motion_dot": 9.58e-06,
        "meta_mean_motion_ddot": 0,
        "tle_line1": "1 43783U 18099AB  25361.35013479  .00000958  00000+0  82885-4 0  9997",
        "tle_line2": "2 43783  97.4507  35.9041 0006477 265.2413  94.8071 14.99376905385556"
      },
      "geometry": {
        "type": "Point",
        "coordinates": [
          47.179799307226865,
          -55.164747451902045
        ]
      }
    },
    {
      "type": "Feature",
      "properties": {
        "norad_id": 43831,
        "name": "SAUDISAT 5A",
        "group": "resource",
        "lat": -14.46062619066269,
        "lon": 63.61006337100998,
        "alt_km": 487.58871280783205,
        "timestamp": "2025-12-27T19:21:58.432312+00:00",
        "meta_object_name": "SAUDISAT 5A",
        "meta_object_id": "2018-102A",
        "meta_epoch": "2025-12-27T13:08:03.230304",
        "meta_mean_motion": 15.25841042,
        "meta_eccentricity": 0.0010867,
        "meta_inclination": 97.3332,
        "meta_ra_of_asc_node": 61.4522,
        "meta_arg_of_pericenter": 29.8113,
        "meta_mean_anomaly": 330.3742,
        "meta_ephemeris_type": 0,
        "meta_classification_type": "U",
        "meta_norad_cat_id": 43831,
        "meta_element_set_no": 999,
        "meta_rev_at_epoch": 38948,
        "meta_bstar": 0.00026589,
        "meta_mean_motion_dot": 6.744e-05,
        "meta_mean_motion_ddot": 0,
        "tle_line1": "1 43831U 18102A   25361.54725961  .00006744  00000+0  26589-3 0  9990",
        "tle_line2": "2 43831  97.3332  61.4522 0010867  29.8113 330.3742 15.25841042389480"
      },
      "geometry": {
        "type": "Point",
        "coordinates": [
          63.61006337100998,
          -14.46062619066269
        ]
      }
    },
    {
      "type": "Feature",
      "properties": {
        "norad_id": 43833,
        "name": "SAUDISAT 5B",
        "group": "resource",
        "lat": 56.04662304774157,
        "lon": 53.43152519528782,
        "alt_km": 474.7272189862997,
        "timestamp": "2025-12-27T19:21:58.432321+00:00",
        "meta_object_name": "SAUDISAT 5B",
        "meta_object_id": "2018-102C",
        "meta_epoch": "2025-12-27T12:49:29.072064",
        "meta_mean_motion": 15.26185639,
        "meta_eccentricity": 0.0011627,
        "meta_inclination": 97.3426,
        "meta_ra_of_asc_node": 64.2047,
        "meta_arg_of_pericenter": 31.8241,
        "meta_mean_anomaly": 328.3698,
        "meta_ephemeris_type": 0,
        "meta_classification_type": "U",
        "meta_norad_cat_id": 43833,
        "meta_element_set_no": 999,
        "meta_rev_at_epoch": 38959,
        "meta_bstar": 0.00027492,
        "meta_mean_motion_dot": 7.05e-05,
        "meta_mean_motion_ddot": 0,
        "tle_line1": "1 43833U 18102C   25361.53436426  .00007050  00000+0  27492-3 0  9991",
        "tle_line2": "2 43833  97.3426  64.2047 0011627  31.8241 328.3698 15.26185639389592"
      },
      "geometry": {
        "type": "Point",
        "coordinates": [
          53.43152519528782,
          56.04662304774157
        ]
      }
    },
    {
      "type": "Feature",
      "properties": {
        "norad_id": 44622,
        "name": "GAOFEN-10R",
        "group": "resource",
        "lat": 3.074042492226193,
        "lon": 129.80834113667305,
        "alt_km": 627.7128151849256,
        "timestamp": "2025-12-27T19:21:58.432332+00:00",
        "meta_object_name": "GAOFEN-10R",
        "meta_object_id": "2019-066A",
        "meta_epoch": "2025-12-27T12:05:36.741408",
        "meta_mean_motion": 14.82843505,
        "meta_eccentricity": 0.0006775,
        "meta_inclination": 98.0296,
        "meta_ra_of_asc_node": 309.0697,
        "meta_arg_of_pericenter": 358.0922,
        "meta_mean_anomaly": 2.0264,
        "meta_ephemeris_type": 0,
        "meta_classification_type": "U",
        "meta_norad_cat_id": 44622,
        "meta_element_set_no": 999,
        "meta_rev_at_epoch": 33693,
        "meta_bstar": 0.00024494,
        "meta_mean_motion_dot": 1.929e-05,
        "meta_mean_motion_ddot": 0,
        "tle_line1": "1 44622U 19066A   25361.50389747  .00001929  00000+0  24494-3 0  9996",
        "tle_line2": "2 44622  98.0296 309.0697 0006775 358.0922   2.0264 14.82843505336930"
      },
      "geometry": {
        "type": "Point",
        "coordinates": [
          129.80834113667305,
          3.074042492226193
        ]
      }
    },
    {
      "type": "Feature",
      "properties": {
        "norad_id": 44804,
        "name": "CARTOSAT-3",
        "group": "resource",
        "lat": 28.700838890508106,
        "lon": -114.69031757686366,
        "alt_km": 510.7431044516443,
        "timestamp": "2025-12-27T19:21:58.432341+00:00",
        "meta_object_name": "CARTOSAT-3",
        "meta_object_id": "2019-081A",
        "meta_epoch": "2025-12-27T12:22:56.252640",
        "meta_mean_motion": 15.1928343,
        "meta_eccentricity": 0.0013457,
        "meta_inclination": 97.4561,
        "meta_ra_of_asc_node": 60.9106,
        "meta_arg_of_pericenter": 36.3564,
        "meta_mean_anomaly": 323.8582,
        "meta_ephemeris_type": 0,
        "meta_classification_type": "U",
        "meta_norad_cat_id": 44804,
        "meta_element_set_no": 999,
        "meta_rev_at_epoch": 33740,
        "meta_bstar": 0.00038159,
        "meta_mean_motion_dot": 8.003e-05,
        "meta_mean_motion_ddot": 0,
        "tle_line1": "1 44804U 19081A   25361.51592885  .00008003  00000+0  38159-3 0  9998",
        "tle_line2": "2 44804  97.4561  60.9106 0013457  36.3564 323.8582 15.19283430337407"
      },
      "geometry": {
        "type": "Point",
        "coordinates": [
          -114.69031757686366,
          28.700838890508106
        ]
      }
    },
    {
      "type": "Feature",
      "properties": {
        "norad_id": 44819,
        "name": "GAOFEN-12 01",
        "group": "resource",
        "lat": -32.77066481667863,
        "lon": 12.763053583768723,
        "alt_km": 634.8894657069186,
        "timestamp": "2025-12-27T19:21:58.432350+00:00",
        "meta_object_name": "GAOFEN-12 01",
        "meta_object_id": "2019-082A",
        "meta_epoch": "2025-12-27T13:01:41.052000",
        "meta_mean_motion": 14.80674675,
        "meta_eccentricity": 0.0002392,
        "meta_inclination": 97.8125,
        "meta_ra_of_asc_node": 7.4353,
        "meta_arg_of_pericenter": 171.1747,
        "meta_mean_anomaly": 188.9508,
        "meta_ephemeris_type": 0,
        "meta_classification_type": "U",
        "meta_norad_cat_id": 44819,
        "meta_element_set_no": 999,
        "meta_rev_at_epoch": 32869,
        "meta_bstar": 8.4439e-05,
        "meta_mean_motion_dot": 5.98e-06,
        "meta_mean_motion_ddot": 0,
        "tle_line1": "1 44819U 19082A   25361.54283625  .00000598  00000+0  84439-4 0  9991",
        "tle_line2": "2 44819  97.8125   7.4353 0002392 171.1747 188.9508 14.80674675328691"
      },
      "geometry": {
        "type": "Point",
        "coordinates": [
          12.763053583768723,
          -32.77066481667863
        ]
      }
    },
    {
      "type": "Feature",
      "properties": {
        "norad_id": 44873,
        "name": "CSG-1",
        "group": "resource",
        "lat": 20.960208989990992,
        "lon": 5.9455633662828395,
        "alt_km": 622.1786442789089,
        "timestamp": "2025-12-27T19:21:58.432359+00:00",
        "meta_object_name": "CSG-1",
        "meta_object_id": "2019-092A",
        "meta_epoch": "2025-12-27T12:10:17.771232",
        "meta_mean_motion": 14.82164849,
        "meta_eccentricity": 0.0001443,
        "meta_inclination": 97.8805,
        "meta_ra_of_asc_node": 182.609,
        "meta_arg_of_pericenter": 84.9524,
        "meta_mean_anomaly": 275.1854,
        "meta_ephemeris_type": 0,
        "meta_classification_type": "U",
        "meta_norad_cat_id": 44873,
        "meta_element_set_no": 999,
        "meta_rev_at_epoch": 32604,
        "meta_bstar": 9.9569e-05,
        "meta_mean_motion_dot": 7.41e-06,
        "meta_mean_motion_ddot": 0,
        "tle_line1": "1 44873U 19092A   25361.50715013  .00000741  00000+0  99569-4 0  9999",
        "tle_line2": "2 44873  97.8805 182.6090 0001443  84.9524 275.1854 14.82164849326049"
      },
      "geometry": {
        "type": "Point",
        "coordinates": [
          5.9455633662828395,
          20.960208989990992
        ]
      }
    }
  ]
}